{
  "countries": [
    { "code": "SA", "name": "Saudi Arabia", "dialCode": "+966", "flag": "ğŸ‡¸ğŸ‡¦", "minDigits": 9, "maxDigits": 9, "format": "XX XXX XXXX", "popular": true, "pricing": { "currency": "SAR", "symbol": "Ø±.Ø³", "position": "after", "hobby": "85", "basic": "371", "pro": "1871" }},
    { "code": "AE", "name": "United Arab Emirates", "dialCode": "+971", "flag": "ğŸ‡¦ğŸ‡ª", "minDigits": 9, "maxDigits": 9, "format": "XX XXX XXXX", "popular": true, "pricing": { "currency": "AED", "symbol": "Ø¯.Ø¥", "position": "after", "hobby": "75", "basic": "363", "pro": "1831" }},
    { "code": "EG", "name": "Egypt", "dialCode": "+20", "flag": "ğŸ‡ªğŸ‡¬", "minDigits": 10, "maxDigits": 10, "format": "XXX XXX XXXX", "popular": true, "pricing": { "currency": "EGP", "symbol": "EGP", "position": "after", "hobby": "850", "basic": "4950", "pro": "24950" }},
    { "code": "KW", "name": "Kuwait", "dialCode": "+965", "flag": "ğŸ‡°ğŸ‡¼", "minDigits": 8, "maxDigits": 8, "format": "XXXX XXXX", "popular": true, "pricing": { "currency": "KWD", "symbol": "Ø¯.Ùƒ", "position": "after", "hobby": "6", "basic": "30", "pro": "153" }},
    { "code": "QA", "name": "Qatar", "dialCode": "+974", "flag": "ğŸ‡¶ğŸ‡¦", "minDigits": 8, "maxDigits": 8, "format": "XXXX XXXX", "popular": true, "pricing": { "currency": "QAR", "symbol": "Ø±.Ù‚", "position": "after", "hobby": "75", "basic": "360", "pro": "1816" }},
    { "code": "BH", "name": "Bahrain", "dialCode": "+973", "flag": "ğŸ‡§ğŸ‡­", "minDigits": 8, "maxDigits": 8, "format": "XXXX XXXX", "popular": true, "pricing": { "currency": "BHD", "symbol": "Ø¯.Ø¨", "position": "after", "hobby": "8", "basic": "37", "pro": "188" }},
    { "code": "OM", "name": "Oman", "dialCode": "+968", "flag": "ğŸ‡´ğŸ‡²", "minDigits": 8, "maxDigits": 8, "format": "XXXX XXXX", "popular": true, "pricing": { "currency": "OMR", "symbol": "Ø±.Ø¹.", "position": "after", "hobby": "8", "basic": "38", "pro": "192" }},
    { "code": "LB", "name": "Lebanon", "dialCode": "+961", "flag": "ğŸ‡±ğŸ‡§", "minDigits": 8, "maxDigits": 8, "format": "XX XXX XXX", "popular": true, "pricing": { "currency": "USD", "symbol": "$", "position": "before", "hobby": "20", "basic": "99", "pro": "499" }},
    { "code": "JO", "name": "Jordan", "dialCode": "+962", "flag": "ğŸ‡¯ğŸ‡´", "minDigits": 9, "maxDigits": 9, "format": "X XXXX XXXX", "popular": true, "pricing": { "currency": "JOD", "symbol": "Ø¯.Ø£", "position": "after", "hobby": "15", "basic": "70", "pro": "353" }},
    { "code": "IQ", "name": "Iraq", "dialCode": "+964", "flag": "ğŸ‡®ğŸ‡¶", "minDigits": 10, "maxDigits": 10, "format": "XXX XXX XXXX", "popular": true, "pricing": { "currency": "IQD", "symbol": "Ø¹.Ø¯", "position": "after", "hobby": "26790", "basic": "129690", "pro": "653310" }},
    { "code": "IR", "name": "Iran", "dialCode": "+98", "flag": "ğŸ‡®ğŸ‡·", "minDigits": 10, "maxDigits": 10, "pricing": { "currency": "IRR", "symbol": "ï·¼", "position": "after", "hobby": "850000", "basic": "4158000", "pro": "20958000" }},
    { "code": "YE", "name": "Yemen", "dialCode": "+967", "flag": "ğŸ‡¾ğŸ‡ª", "minDigits": 9, "maxDigits": 9, "pricing": { "currency": "USD", "symbol": "$", "position": "before", "hobby": "20", "basic": "99", "pro": "499" }},
    { "code": "SY", "name": "Syria", "dialCode": "+963", "flag": "ğŸ‡¸ğŸ‡¾", "minDigits": 9, "maxDigits": 9, "pricing": { "currency": "USD", "symbol": "$", "position": "before", "hobby": "20", "basic": "99", "pro": "499" }},
    { "code": "DZ", "name": "Algeria", "dialCode": "+213", "flag": "ğŸ‡©ğŸ‡¿", "minDigits": 9, "maxDigits": 9, "pricing": { "currency": "DZD", "symbol": "Ø¯.Ø¬", "position": "after", "hobby": "2730", "basic": "13266", "pro": "66834" }},
    { "code": "LY", "name": "Libya", "dialCode": "+218", "flag": "ğŸ‡±ğŸ‡¾", "minDigits": 9, "maxDigits": 10, "pricing": { "currency": "LYD", "symbol": "Ù„.Ø¯", "position": "after", "hobby": "100", "basic": "481", "pro": "2423" }},
    { "code": "MA", "name": "Morocco", "dialCode": "+212", "flag": "ğŸ‡²ğŸ‡¦", "minDigits": 9, "maxDigits": 9, "pricing": { "currency": "MAD", "symbol": "Ø¯.Ù….", "position": "after", "hobby": "200", "basic": "988", "pro": "4978" }},
    { "code": "SD", "name": "Sudan", "dialCode": "+249", "flag": "ğŸ‡¸ğŸ‡©", "minDigits": 9, "maxDigits": 9, "pricing": { "currency": "SDG", "symbol": "Ø¬.Ø³", "position": "after", "hobby": "12300", "basic": "59400", "pro": "299400" }},
    { "code": "TN", "name": "Tunisia", "dialCode": "+216", "flag": "ğŸ‡¹ğŸ‡³", "minDigits": 8, "maxDigits": 8, "pricing": { "currency": "TND", "symbol": "Ø¯.Øª", "position": "after", "hobby": "65", "basic": "310", "pro": "1562" }},
    { "code": "TR", "name": "Turkey", "dialCode": "+90", "flag": "ğŸ‡¹ğŸ‡·", "minDigits": 10, "maxDigits": 10, "pricing": { "currency": "TRY", "symbol": "â‚º", "position": "after", "hobby": "700", "basic": "3386", "pro": "17066" }},
    { "code": "AT", "name": "Austria", "dialCode": "+43", "flag": "ğŸ‡¦ğŸ‡¹", "minDigits": 10, "maxDigits": 13, "pricing": { "currency": "EUR", "symbol": "â‚¬", "position": "before", "hobby": "19", "basic": "92", "pro": "463" }},
    { "code": "BE", "name": "Belgium", "dialCode": "+32", "flag": "ğŸ‡§ğŸ‡ª", "minDigits": 9, "maxDigits": 9, "pricing": { "currency": "EUR", "symbol": "â‚¬", "position": "before", "hobby": "19", "basic": "92", "pro": "463" }},
    { "code": "HR", "name": "Croatia", "dialCode": "+385", "flag": "ğŸ‡­ğŸ‡·", "minDigits": 9, "maxDigits": 9, "pricing": { "currency": "EUR", "symbol": "â‚¬", "position": "before", "hobby": "19", "basic": "92", "pro": "463" }},
    { "code": "CY", "name": "Cyprus", "dialCode": "+357", "flag": "ğŸ‡¨ğŸ‡¾", "minDigits": 8, "maxDigits": 8, "pricing": { "currency": "EUR", "symbol": "â‚¬", "position": "before", "hobby": "19", "basic": "92", "pro": "463" }},
    { "code": "EE", "name": "Estonia", "dialCode": "+372", "flag": "ğŸ‡ªğŸ‡ª", "minDigits": 7, "maxDigits": 8, "pricing": { "currency": "EUR", "symbol": "â‚¬", "position": "before", "hobby": "19", "basic": "92", "pro": "463" }},
    { "code": "FI", "name": "Finland", "dialCode": "+358", "flag": "ğŸ‡«ğŸ‡®", "minDigits": 9, "maxDigits": 10, "pricing": { "currency": "EUR", "symbol": "â‚¬", "position": "before", "hobby": "19", "basic": "92", "pro": "463" }},
    { "code": "FR", "name": "France", "dialCode": "+33", "flag": "ğŸ‡«ğŸ‡·", "minDigits": 9, "maxDigits": 9, "pricing": { "currency": "EUR", "symbol": "â‚¬", "position": "before", "hobby": "19", "basic": "92", "pro": "463" }},
    { "code": "DE", "name": "Germany", "dialCode": "+49", "flag": "ğŸ‡©ğŸ‡ª", "minDigits": 10, "maxDigits": 11, "pricing": { "currency": "EUR", "symbol": "â‚¬", "position": "before", "hobby": "19", "basic": "92", "pro": "463" }},
    { "code": "GR", "name": "Greece", "dialCode": "+30", "flag": "ğŸ‡¬ğŸ‡·", "minDigits": 10, "maxDigits": 10, "pricing": { "currency": "EUR", "symbol": "â‚¬", "position": "before", "hobby": "19", "basic": "92", "pro": "463" }},
    { "code": "IE", "name": "Ireland", "dialCode": "+353", "flag": "ğŸ‡®ğŸ‡ª", "minDigits": 9, "maxDigits": 9, "pricing": { "currency": "EUR", "symbol": "â‚¬", "position": "before", "hobby": "19", "basic": "92", "pro": "463" }},
    { "code": "IT", "name": "Italy", "dialCode": "+39", "flag": "ğŸ‡®ğŸ‡¹", "minDigits": 9, "maxDigits": 10, "pricing": { "currency": "EUR", "symbol": "â‚¬", "position": "before", "hobby": "19", "basic": "92", "pro": "463" }},
    { "code": "LV", "name": "Latvia", "dialCode": "+371", "flag": "ğŸ‡±ğŸ‡»", "minDigits": 8, "maxDigits": 8, "pricing": { "currency": "EUR", "symbol": "â‚¬", "position": "before", "hobby": "19", "basic": "92", "pro": "463" }},
    { "code": "LT", "name": "Lithuania", "dialCode": "+370", "flag": "ğŸ‡±ğŸ‡¹", "minDigits": 8, "maxDigits": 8, "pricing": { "currency": "EUR", "symbol": "â‚¬", "position": "before", "hobby": "19", "basic": "92", "pro": "463" }},
    { "code": "LU", "name": "Luxembourg", "dialCode": "+352", "flag": "ğŸ‡±ğŸ‡º", "minDigits": 9, "maxDigits": 9, "pricing": { "currency": "EUR", "symbol": "â‚¬", "position": "before", "hobby": "19", "basic": "92", "pro": "463" }},
    { "code": "MT", "name": "Malta", "dialCode": "+356", "flag": "ğŸ‡²ğŸ‡¹", "minDigits": 8, "maxDigits": 8, "pricing": { "currency": "EUR", "symbol": "â‚¬", "position": "before", "hobby": "19", "basic": "92", "pro": "463" }},
    { "code": "NL", "name": "Netherlands", "dialCode": "+31", "flag": "ğŸ‡³ğŸ‡±", "minDigits": 9, "maxDigits": 9, "pricing": { "currency": "EUR", "symbol": "â‚¬", "position": "before", "hobby": "19", "basic": "92", "pro": "463" }},
    { "code": "PT", "name": "Portugal", "dialCode": "+351", "flag": "ğŸ‡µğŸ‡¹", "minDigits": 9, "maxDigits": 9, "pricing": { "currency": "EUR", "symbol": "â‚¬", "position": "before", "hobby": "19", "basic": "92", "pro": "463" }},
    { "code": "SK", "name": "Slovakia", "dialCode": "+421", "flag": "ğŸ‡¸ğŸ‡°", "minDigits": 9, "maxDigits": 9, "pricing": { "currency": "EUR", "symbol": "â‚¬", "position": "before", "hobby": "19", "basic": "92", "pro": "463" }},
    { "code": "SI", "name": "Slovenia", "dialCode": "+386", "flag": "ğŸ‡¸ğŸ‡®", "minDigits": 8, "maxDigits": 8, "pricing": { "currency": "EUR", "symbol": "â‚¬", "position": "before", "hobby": "19", "basic": "92", "pro": "463" }},
    { "code": "ES", "name": "Spain", "dialCode": "+34", "flag": "ğŸ‡ªğŸ‡¸", "minDigits": 9, "maxDigits": 9, "pricing": { "currency": "EUR", "symbol": "â‚¬", "position": "before", "hobby": "19", "basic": "92", "pro": "463" }},
    { "code": "PL", "name": "Poland", "dialCode": "+48", "flag": "ğŸ‡µğŸ‡±", "minDigits": 9, "maxDigits": 9, "pricing": { "currency": "PLN", "symbol": "zÅ‚", "position": "after", "hobby": "82", "basic": "398", "pro": "2006" }},
    { "code": "CZ", "name": "Czech Republic", "dialCode": "+420", "flag": "ğŸ‡¨ğŸ‡¿", "minDigits": 9, "maxDigits": 9, "pricing": { "currency": "CZK", "symbol": "KÄ", "position": "after", "hobby": "467", "basic": "2267", "pro": "11423" }},
    { "code": "HU", "name": "Hungary", "dialCode": "+36", "flag": "ğŸ‡­ğŸ‡º", "minDigits": 9, "maxDigits": 9, "pricing": { "currency": "HUF", "symbol": "Ft", "position": "after", "hobby": "7860", "basic": "38115", "pro": "192115" }},
    { "code": "SE", "name": "Sweden", "dialCode": "+46", "flag": "ğŸ‡¸ğŸ‡ª", "minDigits": 9, "maxDigits": 9, "pricing": { "currency": "SEK", "symbol": "kr", "position": "after", "hobby": "220", "basic": "1069", "pro": "5387" }},
    { "code": "DK", "name": "Denmark", "dialCode": "+45", "flag": "ğŸ‡©ğŸ‡°", "minDigits": 8, "maxDigits": 8, "pricing": { "currency": "DKK", "symbol": "kr", "position": "after", "hobby": "142", "basic": "689", "pro": "3473" }},
    { "code": "NO", "name": "Norway", "dialCode": "+47", "flag": "ğŸ‡³ğŸ‡´", "minDigits": 8, "maxDigits": 8, "pricing": { "currency": "NOK", "symbol": "kr", "position": "after", "hobby": "227", "basic": "1099", "pro": "5537" }},
    { "code": "CH", "name": "Switzerland", "dialCode": "+41", "flag": "ğŸ‡¨ğŸ‡­", "minDigits": 9, "maxDigits": 9, "pricing": { "currency": "CHF", "symbol": "Fr", "position": "before", "hobby": "18", "basic": "88", "pro": "443" }},
    { "code": "GB", "name": "United Kingdom", "dialCode": "+44", "flag": "ğŸ‡¬ğŸ‡§", "minDigits": 10, "maxDigits": 10, "format": "XXXX XXXXXX", "popular": true, "pricing": { "currency": "GBP", "symbol": "Â£", "position": "before", "hobby": "16", "basic": "78", "pro": "393" }},
    { "code": "US", "name": "United States", "dialCode": "+1", "flag": "ğŸ‡ºğŸ‡¸", "minDigits": 10, "maxDigits": 10, "format": "XXX XXX XXXX", "popular": true, "pricing": { "currency": "USD", "symbol": "$", "position": "before", "hobby": "20", "basic": "99", "pro": "499" }},
    { "code": "CA", "name": "Canada", "dialCode": "+1", "flag": "ğŸ‡¨ğŸ‡¦", "minDigits": 10, "maxDigits": 10, "format": "XXX XXX XXXX", "popular": true, "pricing": { "currency": "USD", "symbol": "$", "position": "before", "hobby": "20", "basic": "99", "pro": "499" }},
    { "code": "IN", "name": "India", "dialCode": "+91", "flag": "ğŸ‡®ğŸ‡³", "minDigits": 10, "maxDigits": 10, "format": "XXXXX XXXXX", "popular": true, "pricing": { "currency": "USD", "symbol": "$", "position": "before", "hobby": "20", "basic": "99", "pro": "499" }},
    { "code": "PK", "name": "Pakistan", "dialCode": "+92", "flag": "ğŸ‡µğŸ‡°", "minDigits": 10, "maxDigits": 10, "format": "XXX XXXXXXX", "popular": true, "pricing": { "currency": "USD", "symbol": "$", "position": "before", "hobby": "20", "basic": "99", "pro": "499" }},
    { "code": "AF", "name": "Afghanistan", "dialCode": "+93", "flag": "ğŸ‡¦ğŸ‡«", "minDigits": 9, "maxDigits": 9 },
    { "code": "AL", "name": "Albania", "dialCode": "+355", "flag": "ğŸ‡¦ğŸ‡±", "minDigits": 9, "maxDigits": 9 },
    { "code": "AS", "name": "American Samoa", "dialCode": "+1684", "flag": "ğŸ‡¦ğŸ‡¸", "minDigits": 10, "maxDigits": 10 },
    { "code": "AD", "name": "Andorra", "dialCode": "+376", "flag": "ğŸ‡¦ğŸ‡©", "minDigits": 6, "maxDigits": 9 },
    { "code": "AO", "name": "Angola", "dialCode": "+244", "flag": "ğŸ‡¦ğŸ‡´", "minDigits": 9, "maxDigits": 9 },
    { "code": "AI", "name": "Anguilla", "dialCode": "+1264", "flag": "ğŸ‡¦ğŸ‡®", "minDigits": 10, "maxDigits": 10 },
    { "code": "AG", "name": "Antigua and Barbuda", "dialCode": "+1268", "flag": "ğŸ‡¦ğŸ‡¬", "minDigits": 10, "maxDigits": 10 },
    { "code": "AR", "name": "Argentina", "dialCode": "+54", "flag": "ğŸ‡¦ğŸ‡·", "minDigits": 10, "maxDigits": 11 },
    { "code": "AM", "name": "Armenia", "dialCode": "+374", "flag": "ğŸ‡¦ğŸ‡²", "minDigits": 8, "maxDigits": 8 },
    { "code": "AW", "name": "Aruba", "dialCode": "+297", "flag": "ğŸ‡¦ğŸ‡¼", "minDigits": 7, "maxDigits": 7 },
    { "code": "AU", "name": "Australia", "dialCode": "+61", "flag": "ğŸ‡¦ğŸ‡º", "minDigits": 9, "maxDigits": 9 },
    { "code": "AZ", "name": "Azerbaijan", "dialCode": "+994", "flag": "ğŸ‡¦ğŸ‡¿", "minDigits": 9, "maxDigits": 9 },
    { "code": "BS", "name": "Bahamas", "dialCode": "+1242", "flag": "ğŸ‡§ğŸ‡¸", "minDigits": 10, "maxDigits": 10 },
    { "code": "BD", "name": "Bangladesh", "dialCode": "+880", "flag": "ğŸ‡§ğŸ‡©", "minDigits": 10, "maxDigits": 10 },
    { "code": "BB", "name": "Barbados", "dialCode": "+1246", "flag": "ğŸ‡§ğŸ‡§", "minDigits": 10, "maxDigits": 10 },
    { "code": "BY", "name": "Belarus", "dialCode": "+375", "flag": "ğŸ‡§ğŸ‡¾", "minDigits": 9, "maxDigits": 9 },
    { "code": "BZ", "name": "Belize", "dialCode": "+501", "flag": "ğŸ‡§ğŸ‡¿", "minDigits": 7, "maxDigits": 7 },
    { "code": "BJ", "name": "Benin", "dialCode": "+229", "flag": "ğŸ‡§ğŸ‡¯", "minDigits": 8, "maxDigits": 8 },
    { "code": "BM", "name": "Bermuda", "dialCode": "+1441", "flag": "ğŸ‡§ğŸ‡²", "minDigits": 10, "maxDigits": 10 },
    { "code": "BT", "name": "Bhutan", "dialCode": "+975", "flag": "ğŸ‡§ğŸ‡¹", "minDigits": 8, "maxDigits": 8 },
    { "code": "BO", "name": "Bolivia", "dialCode": "+591", "flag": "ğŸ‡§ğŸ‡´", "minDigits": 8, "maxDigits": 8 },
    { "code": "BA", "name": "Bosnia and Herzegovina", "dialCode": "+387", "flag": "ğŸ‡§ğŸ‡¦", "minDigits": 8, "maxDigits": 8 },
    { "code": "BW", "name": "Botswana", "dialCode": "+267", "flag": "ğŸ‡§ğŸ‡¼", "minDigits": 8, "maxDigits": 8 },
    { "code": "BR", "name": "Brazil", "dialCode": "+55", "flag": "ğŸ‡§ğŸ‡·", "minDigits": 10, "maxDigits": 11 },
    { "code": "BN", "name": "Brunei", "dialCode": "+673", "flag": "ğŸ‡§ğŸ‡³", "minDigits": 7, "maxDigits": 7 },
    { "code": "BG", "name": "Bulgaria", "dialCode": "+359", "flag": "ğŸ‡§ğŸ‡¬", "minDigits": 9, "maxDigits": 9 },
    { "code": "BF", "name": "Burkina Faso", "dialCode": "+226", "flag": "ğŸ‡§ğŸ‡«", "minDigits": 8, "maxDigits": 8 },
    { "code": "BI", "name": "Burundi", "dialCode": "+257", "flag": "ğŸ‡§ğŸ‡®", "minDigits": 8, "maxDigits": 8 },
    { "code": "KH", "name": "Cambodia", "dialCode": "+855", "flag": "ğŸ‡°ğŸ‡­", "minDigits": 8, "maxDigits": 9 },
    { "code": "CM", "name": "Cameroon", "dialCode": "+237", "flag": "ğŸ‡¨ğŸ‡²", "minDigits": 9, "maxDigits": 9 },
    { "code": "CV", "name": "Cape Verde", "dialCode": "+238", "flag": "ğŸ‡¨ğŸ‡»", "minDigits": 7, "maxDigits": 7 },
    { "code": "KY", "name": "Cayman Islands", "dialCode": "+1345", "flag": "ğŸ‡°ğŸ‡¾", "minDigits": 10, "maxDigits": 10 },
    { "code": "CF", "name": "Central African Republic", "dialCode": "+236", "flag": "ğŸ‡¨ğŸ‡«", "minDigits": 8, "maxDigits": 8 },
    { "code": "TD", "name": "Chad", "dialCode": "+235", "flag": "ğŸ‡¹ğŸ‡©", "minDigits": 8, "maxDigits": 8 },
    { "code": "CL", "name": "Chile", "dialCode": "+56", "flag": "ğŸ‡¨ğŸ‡±", "minDigits": 9, "maxDigits": 9 },
    { "code": "CN", "name": "China", "dialCode": "+86", "flag": "ğŸ‡¨ğŸ‡³", "minDigits": 11, "maxDigits": 11 },
    { "code": "CO", "name": "Colombia", "dialCode": "+57", "flag": "ğŸ‡¨ğŸ‡´", "minDigits": 10, "maxDigits": 10 },
    { "code": "KM", "name": "Comoros", "dialCode": "+269", "flag": "ğŸ‡°ğŸ‡²", "minDigits": 7, "maxDigits": 7 },
    { "code": "CG", "name": "Congo", "dialCode": "+242", "flag": "ğŸ‡¨ğŸ‡¬", "minDigits": 9, "maxDigits": 9 },
    { "code": "CD", "name": "Congo (DRC)", "dialCode": "+243", "flag": "ğŸ‡¨ğŸ‡©", "minDigits": 9, "maxDigits": 9 },
    { "code": "CK", "name": "Cook Islands", "dialCode": "+682", "flag": "ğŸ‡¨ğŸ‡°", "minDigits": 5, "maxDigits": 5 },
    { "code": "CR", "name": "Costa Rica", "dialCode": "+506", "flag": "ğŸ‡¨ğŸ‡·", "minDigits": 8, "maxDigits": 8 },
    { "code": "CI", "name": "CÃ´te d'Ivoire", "dialCode": "+225", "flag": "ğŸ‡¨ğŸ‡®", "minDigits": 10, "maxDigits": 10 },
    { "code": "CU", "name": "Cuba", "dialCode": "+53", "flag": "ğŸ‡¨ğŸ‡º", "minDigits": 8, "maxDigits": 8 },
    { "code": "DJ", "name": "Djibouti", "dialCode": "+253", "flag": "ğŸ‡©ğŸ‡¯", "minDigits": 8, "maxDigits": 8 },
    { "code": "DM", "name": "Dominica", "dialCode": "+1767", "flag": "ğŸ‡©ğŸ‡²", "minDigits": 10, "maxDigits": 10 },
    { "code": "DO", "name": "Dominican Republic", "dialCode": "+1", "flag": "ğŸ‡©ğŸ‡´", "minDigits": 10, "maxDigits": 10 },
    { "code": "EC", "name": "Ecuador", "dialCode": "+593", "flag": "ğŸ‡ªğŸ‡¨", "minDigits": 9, "maxDigits": 9 },
    { "code": "SV", "name": "El Salvador", "dialCode": "+503", "flag": "ğŸ‡¸ğŸ‡»", "minDigits": 8, "maxDigits": 8 },
    { "code": "GQ", "name": "Equatorial Guinea", "dialCode": "+240", "flag": "ğŸ‡¬ğŸ‡¶", "minDigits": 9, "maxDigits": 9 },
    { "code": "ER", "name": "Eritrea", "dialCode": "+291", "flag": "ğŸ‡ªğŸ‡·", "minDigits": 7, "maxDigits": 7 },
    { "code": "ET", "name": "Ethiopia", "dialCode": "+251", "flag": "ğŸ‡ªğŸ‡¹", "minDigits": 9, "maxDigits": 9 },
    { "code": "FJ", "name": "Fiji", "dialCode": "+679", "flag": "ğŸ‡«ğŸ‡¯", "minDigits": 7, "maxDigits": 7 },
    { "code": "GF", "name": "French Guiana", "dialCode": "+594", "flag": "ğŸ‡¬ğŸ‡«", "minDigits": 9, "maxDigits": 9 },
    { "code": "PF", "name": "French Polynesia", "dialCode": "+689", "flag": "ğŸ‡µğŸ‡«", "minDigits": 8, "maxDigits": 8 },
    { "code": "GA", "name": "Gabon", "dialCode": "+241", "flag": "ğŸ‡¬ğŸ‡¦", "minDigits": 7, "maxDigits": 8 },
    { "code": "GM", "name": "Gambia", "dialCode": "+220", "flag": "ğŸ‡¬ğŸ‡²", "minDigits": 7, "maxDigits": 7 },
    { "code": "GE", "name": "Georgia", "dialCode": "+995", "flag": "ğŸ‡¬ğŸ‡ª", "minDigits": 9, "maxDigits": 9 },
    { "code": "GH", "name": "Ghana", "dialCode": "+233", "flag": "ğŸ‡¬ğŸ‡­", "minDigits": 9, "maxDigits": 9 },
    { "code": "GI", "name": "Gibraltar", "dialCode": "+350", "flag": "ğŸ‡¬ğŸ‡®", "minDigits": 8, "maxDigits": 8 },
    { "code": "GL", "name": "Greenland", "dialCode": "+299", "flag": "ğŸ‡¬ğŸ‡±", "minDigits": 6, "maxDigits": 6 },
    { "code": "GD", "name": "Grenada", "dialCode": "+1473", "flag": "ğŸ‡¬ğŸ‡©", "minDigits": 10, "maxDigits": 10 },
    { "code": "GP", "name": "Guadeloupe", "dialCode": "+590", "flag": "ğŸ‡¬ğŸ‡µ", "minDigits": 9, "maxDigits": 9 },
    { "code": "GU", "name": "Guam", "dialCode": "+1671", "flag": "ğŸ‡¬ğŸ‡º", "minDigits": 10, "maxDigits": 10 },
    { "code": "GT", "name": "Guatemala", "dialCode": "+502", "flag": "ğŸ‡¬ğŸ‡¹", "minDigits": 8, "maxDigits": 8 },
    { "code": "GN", "name": "Guinea", "dialCode": "+224", "flag": "ğŸ‡¬ğŸ‡³", "minDigits": 9, "maxDigits": 9 },
    { "code": "GW", "name": "Guinea-Bissau", "dialCode": "+245", "flag": "ğŸ‡¬ğŸ‡¼", "minDigits": 7, "maxDigits": 7 },
    { "code": "GY", "name": "Guyana", "dialCode": "+592", "flag": "ğŸ‡¬ğŸ‡¾", "minDigits": 7, "maxDigits": 7 },
    { "code": "HT", "name": "Haiti", "dialCode": "+509", "flag": "ğŸ‡­ğŸ‡¹", "minDigits": 8, "maxDigits": 8 },
    { "code": "HN", "name": "Honduras", "dialCode": "+504", "flag": "ğŸ‡­ğŸ‡³", "minDigits": 8, "maxDigits": 8 },
    { "code": "HK", "name": "Hong Kong", "dialCode": "+852", "flag": "ğŸ‡­ğŸ‡°", "minDigits": 8, "maxDigits": 8 },
    { "code": "IS", "name": "Iceland", "dialCode": "+354", "flag": "ğŸ‡®ğŸ‡¸", "minDigits": 7, "maxDigits": 7 },
    { "code": "ID", "name": "Indonesia", "dialCode": "+62", "flag": "ğŸ‡®ğŸ‡©", "minDigits": 9, "maxDigits": 11 },
    { "code": "IL", "name": "Israel", "dialCode": "+972", "flag": "ğŸ‡®ğŸ‡±", "minDigits": 9, "maxDigits": 9 },
    { "code": "JM", "name": "Jamaica", "dialCode": "+1876", "flag": "ğŸ‡¯ğŸ‡²", "minDigits": 10, "maxDigits": 10 },
    { "code": "JP", "name": "Japan", "dialCode": "+81", "flag": "ğŸ‡¯ğŸ‡µ", "minDigits": 10, "maxDigits": 10 },
    { "code": "KZ", "name": "Kazakhstan", "dialCode": "+7", "flag": "ğŸ‡°ğŸ‡¿", "minDigits": 10, "maxDigits": 10 },
    { "code": "KE", "name": "Kenya", "dialCode": "+254", "flag": "ğŸ‡°ğŸ‡ª", "minDigits": 9, "maxDigits": 10 },
    { "code": "KI", "name": "Kiribati", "dialCode": "+686", "flag": "ğŸ‡°ğŸ‡®", "minDigits": 8, "maxDigits": 8 },
    { "code": "KR", "name": "South Korea", "dialCode": "+82", "flag": "ğŸ‡°ğŸ‡·", "minDigits": 9, "maxDigits": 10 },
    { "code": "XK", "name": "Kosovo", "dialCode": "+383", "flag": "ğŸ‡½ğŸ‡°", "minDigits": 8, "maxDigits": 9 },
    { "code": "KG", "name": "Kyrgyzstan", "dialCode": "+996", "flag": "ğŸ‡°ğŸ‡¬", "minDigits": 9, "maxDigits": 9 },
    { "code": "LA", "name": "Laos", "dialCode": "+856", "flag": "ğŸ‡±ğŸ‡¦", "minDigits": 9, "maxDigits": 10 },
    { "code": "LS", "name": "Lesotho", "dialCode": "+266", "flag": "ğŸ‡±ğŸ‡¸", "minDigits": 8, "maxDigits": 8 },
    { "code": "LR", "name": "Liberia", "dialCode": "+231", "flag": "ğŸ‡±ğŸ‡·", "minDigits": 7, "maxDigits": 8 },
    { "code": "LI", "name": "Liechtenstein", "dialCode": "+423", "flag": "ğŸ‡±ğŸ‡®", "minDigits": 7, "maxDigits": 9 },
    { "code": "MO", "name": "Macau", "dialCode": "+853", "flag": "ğŸ‡²ğŸ‡´", "minDigits": 8, "maxDigits": 8 },
    { "code": "MK", "name": "North Macedonia", "dialCode": "+389", "flag": "ğŸ‡²ğŸ‡°", "minDigits": 8, "maxDigits": 8 },
    { "code": "MG", "name": "Madagascar", "dialCode": "+261", "flag": "ğŸ‡²ğŸ‡¬", "minDigits": 9, "maxDigits": 10 },
    { "code": "MW", "name": "Malawi", "dialCode": "+265", "flag": "ğŸ‡²ğŸ‡¼", "minDigits": 8, "maxDigits": 9 },
    { "code": "MY", "name": "Malaysia", "dialCode": "+60", "flag": "ğŸ‡²ğŸ‡¾", "minDigits": 9, "maxDigits": 10 },
    { "code": "MV", "name": "Maldives", "dialCode": "+960", "flag": "ğŸ‡²ğŸ‡»", "minDigits": 7, "maxDigits": 7 },
    { "code": "ML", "name": "Mali", "dialCode": "+223", "flag": "ğŸ‡²ğŸ‡±", "minDigits": 8, "maxDigits": 8 },
    { "code": "MH", "name": "Marshall Islands", "dialCode": "+692", "flag": "ğŸ‡²ğŸ‡­", "minDigits": 7, "maxDigits": 7 },
    { "code": "MQ", "name": "Martinique", "dialCode": "+596", "flag": "ğŸ‡²ğŸ‡¶", "minDigits": 9, "maxDigits": 9 },
    { "code": "MR", "name": "Mauritania", "dialCode": "+222", "flag": "ğŸ‡²ğŸ‡·", "minDigits": 8, "maxDigits": 8 },
    { "code": "MU", "name": "Mauritius", "dialCode": "+230", "flag": "ğŸ‡²ğŸ‡º", "minDigits": 8, "maxDigits": 8 },
    { "code": "MX", "name": "Mexico", "dialCode": "+52", "flag": "ğŸ‡²ğŸ‡½", "minDigits": 10, "maxDigits": 10 },
    { "code": "FM", "name": "Micronesia", "dialCode": "+691", "flag": "ğŸ‡«ğŸ‡²", "minDigits": 7, "maxDigits": 7 },
    { "code": "MD", "name": "Moldova", "dialCode": "+373", "flag": "ğŸ‡²ğŸ‡©", "minDigits": 8, "maxDigits": 8 },
    { "code": "MC", "name": "Monaco", "dialCode": "+377", "flag": "ğŸ‡²ğŸ‡¨", "minDigits": 8, "maxDigits": 9 },
    { "code": "MN", "name": "Mongolia", "dialCode": "+976", "flag": "ğŸ‡²ğŸ‡³", "minDigits": 8, "maxDigits": 8 },
    { "code": "ME", "name": "Montenegro", "dialCode": "+382", "flag": "ğŸ‡²ğŸ‡ª", "minDigits": 8, "maxDigits": 9 },
    { "code": "MS", "name": "Montserrat", "dialCode": "+1664", "flag": "ğŸ‡²ğŸ‡¸", "minDigits": 10, "maxDigits": 10 },
    { "code": "MZ", "name": "Mozambique", "dialCode": "+258", "flag": "ğŸ‡²ğŸ‡¿", "minDigits": 9, "maxDigits": 9 },
    { "code": "MM", "name": "Myanmar", "dialCode": "+95", "flag": "ğŸ‡²ğŸ‡²", "minDigits": 8, "maxDigits": 10 },
    { "code": "NA", "name": "Namibia", "dialCode": "+264", "flag": "ğŸ‡³ğŸ‡¦", "minDigits": 9, "maxDigits": 10 },
    { "code": "NR", "name": "Nauru", "dialCode": "+674", "flag": "ğŸ‡³ğŸ‡·", "minDigits": 7, "maxDigits": 7 },
    { "code": "NP", "name": "Nepal", "dialCode": "+977", "flag": "ğŸ‡³ğŸ‡µ", "minDigits": 10, "maxDigits": 10 },
    { "code": "NC", "name": "New Caledonia", "dialCode": "+687", "flag": "ğŸ‡³ğŸ‡¨", "minDigits": 6, "maxDigits": 6 },
    { "code": "NZ", "name": "New Zealand", "dialCode": "+64", "flag": "ğŸ‡³ğŸ‡¿", "minDigits": 8, "maxDigits": 10 },
    { "code": "NI", "name": "Nicaragua", "dialCode": "+505", "flag": "ğŸ‡³ğŸ‡®", "minDigits": 8, "maxDigits": 8 },
    { "code": "NE", "name": "Niger", "dialCode": "+227", "flag": "ğŸ‡³ğŸ‡ª", "minDigits": 8, "maxDigits": 8 },
    { "code": "NG", "name": "Nigeria", "dialCode": "+234", "flag": "ğŸ‡³ğŸ‡¬", "minDigits": 10, "maxDigits": 10 },
    { "code": "NU", "name": "Niue", "dialCode": "+683", "flag": "ğŸ‡³ğŸ‡º", "minDigits": 4, "maxDigits": 4 },
    { "code": "PS", "name": "Palestine", "dialCode": "+970", "flag": "ğŸ‡µğŸ‡¸", "minDigits": 9, "maxDigits": 9 },
    { "code": "PA", "name": "Panama", "dialCode": "+507", "flag": "ğŸ‡µğŸ‡¦", "minDigits": 8, "maxDigits": 8 },
    { "code": "PG", "name": "Papua New Guinea", "dialCode": "+675", "flag": "ğŸ‡µğŸ‡¬", "minDigits": 8, "maxDigits": 8 },
    { "code": "PY", "name": "Paraguay", "dialCode": "+595", "flag": "ğŸ‡µğŸ‡¾", "minDigits": 9, "maxDigits": 9 },
    { "code": "PE", "name": "Peru", "dialCode": "+51", "flag": "ğŸ‡µğŸ‡ª", "minDigits": 9, "maxDigits": 9 },
    { "code": "PH", "name": "Philippines", "dialCode": "+63", "flag": "ğŸ‡µğŸ‡­", "minDigits": 10, "maxDigits": 10 },
    { "code": "PR", "name": "Puerto Rico", "dialCode": "+1", "flag": "ğŸ‡µğŸ‡·", "minDigits": 10, "maxDigits": 10 },
    { "code": "RE", "name": "RÃ©union", "dialCode": "+262", "flag": "ğŸ‡·ğŸ‡ª", "minDigits": 9, "maxDigits": 9 },
    { "code": "RO", "name": "Romania", "dialCode": "+40", "flag": "ğŸ‡·ğŸ‡´", "minDigits": 9, "maxDigits": 9 },
    { "code": "RU", "name": "Russia", "dialCode": "+7", "flag": "ğŸ‡·ğŸ‡º", "minDigits": 10, "maxDigits": 10 },
    { "code": "RW", "name": "Rwanda", "dialCode": "+250", "flag": "ğŸ‡·ğŸ‡¼", "minDigits": 9, "maxDigits": 9 },
    { "code": "WS", "name": "Samoa", "dialCode": "+685", "flag": "ğŸ‡¼ğŸ‡¸", "minDigits": 5, "maxDigits": 7 },
    { "code": "SM", "name": "San Marino", "dialCode": "+378", "flag": "ğŸ‡¸ğŸ‡²", "minDigits": 10, "maxDigits": 10 },
    { "code": "ST", "name": "Sao Tome and Principe", "dialCode": "+239", "flag": "ğŸ‡¸ğŸ‡¹", "minDigits": 7, "maxDigits": 7 },
    { "code": "SN", "name": "Senegal", "dialCode": "+221", "flag": "ğŸ‡¸ğŸ‡³", "minDigits": 9, "maxDigits": 9 },
    { "code": "RS", "name": "Serbia", "dialCode": "+381", "flag": "ğŸ‡·ğŸ‡¸", "minDigits": 8, "maxDigits": 9 },
    { "code": "SC", "name": "Seychelles", "dialCode": "+248", "flag": "ğŸ‡¸ğŸ‡¨", "minDigits": 7, "maxDigits": 7 },
    { "code": "SL", "name": "Sierra Leone", "dialCode": "+232", "flag": "ğŸ‡¸ğŸ‡±", "minDigits": 8, "maxDigits": 8 },
    { "code": "SG", "name": "Singapore", "dialCode": "+65", "flag": "ğŸ‡¸ğŸ‡¬", "minDigits": 8, "maxDigits": 8 },
    { "code": "SB", "name": "Solomon Islands", "dialCode": "+677", "flag": "ğŸ‡¸ğŸ‡§", "minDigits": 5, "maxDigits": 7 },
    { "code": "SO", "name": "Somalia", "dialCode": "+252", "flag": "ğŸ‡¸ğŸ‡´", "minDigits": 8, "maxDigits": 9 },
    { "code": "ZA", "name": "South Africa", "dialCode": "+27", "flag": "ğŸ‡¿ğŸ‡¦", "minDigits": 9, "maxDigits": 9 },
    { "code": "SS", "name": "South Sudan", "dialCode": "+211", "flag": "ğŸ‡¸ğŸ‡¸", "minDigits": 9, "maxDigits": 9 },
    { "code": "LK", "name": "Sri Lanka", "dialCode": "+94", "flag": "ğŸ‡±ğŸ‡°", "minDigits": 9, "maxDigits": 9 },
    { "code": "SR", "name": "Suriname", "dialCode": "+597", "flag": "ğŸ‡¸ğŸ‡·", "minDigits": 6, "maxDigits": 7 },
    { "code": "SZ", "name": "Eswatini", "dialCode": "+268", "flag": "ğŸ‡¸ğŸ‡¿", "minDigits": 8, "maxDigits": 8 },
    { "code": "TW", "name": "Taiwan", "dialCode": "+886", "flag": "ğŸ‡¹ğŸ‡¼", "minDigits": 9, "maxDigits": 9 },
    { "code": "TJ", "name": "Tajikistan", "dialCode": "+992", "flag": "ğŸ‡¹ğŸ‡¯", "minDigits": 9, "maxDigits": 9 },
    { "code": "TZ", "name": "Tanzania", "dialCode": "+255", "flag": "ğŸ‡¹ğŸ‡¿", "minDigits": 9, "maxDigits": 9 },
    { "code": "TH", "name": "Thailand", "dialCode": "+66", "flag": "ğŸ‡¹ğŸ‡­", "minDigits": 9, "maxDigits": 9 },
    { "code": "TL", "name": "Timor-Leste", "dialCode": "+670", "flag": "ğŸ‡¹ğŸ‡±", "minDigits": 7, "maxDigits": 8 },
    { "code": "TG", "name": "Togo", "dialCode": "+228", "flag": "ğŸ‡¹ğŸ‡¬", "minDigits": 8, "maxDigits": 8 },
    { "code": "TO", "name": "Tonga", "dialCode": "+676", "flag": "ğŸ‡¹ğŸ‡´", "minDigits": 5, "maxDigits": 7 },
    { "code": "TT", "name": "Trinidad and Tobago", "dialCode": "+1868", "flag": "ğŸ‡¹ğŸ‡¹", "minDigits": 10, "maxDigits": 10 },
    { "code": "TM", "name": "Turkmenistan", "dialCode": "+993", "flag": "ğŸ‡¹ğŸ‡²", "minDigits": 8, "maxDigits": 8 },
    { "code": "TV", "name": "Tuvalu", "dialCode": "+688", "flag": "ğŸ‡¹ğŸ‡»", "minDigits": 5, "maxDigits": 6 },
    { "code": "UG", "name": "Uganda", "dialCode": "+256", "flag": "ğŸ‡ºğŸ‡¬", "minDigits": 9, "maxDigits": 9 },
    { "code": "UA", "name": "Ukraine", "dialCode": "+380", "flag": "ğŸ‡ºğŸ‡¦", "minDigits": 9, "maxDigits": 9 },
    { "code": "UY", "name": "Uruguay", "dialCode": "+598", "flag": "ğŸ‡ºğŸ‡¾", "minDigits": 8, "maxDigits": 8 },
    { "code": "UZ", "name": "Uzbekistan", "dialCode": "+998", "flag": "ğŸ‡ºğŸ‡¿", "minDigits": 9, "maxDigits": 9 },
    { "code": "VU", "name": "Vanuatu", "dialCode": "+678", "flag": "ğŸ‡»ğŸ‡º", "minDigits": 5, "maxDigits": 7 },
    { "code": "VE", "name": "Venezuela", "dialCode": "+58", "flag": "ğŸ‡»ğŸ‡ª", "minDigits": 10, "maxDigits": 10 },
    { "code": "VN", "name": "Vietnam", "dialCode": "+84", "flag": "ğŸ‡»ğŸ‡³", "minDigits": 9, "maxDigits": 10 },
    { "code": "ZM", "name": "Zambia", "dialCode": "+260", "flag": "ğŸ‡¿ğŸ‡²", "minDigits": 9, "maxDigits": 9 },
    { "code": "ZW", "name": "Zimbabwe", "dialCode": "+263", "flag": "ğŸ‡¿ğŸ‡¼", "minDigits": 9, "maxDigits": 9 }
  ],
  "timezoneMap": {
    "Asia/Riyadh": "SA",
    "Asia/Dubai": "AE",
    "Asia/Abu_Dhabi": "AE",
    "Africa/Cairo": "EG",
    "Asia/Kuwait": "KW",
    "Asia/Qatar": "QA",
    "Asia/Bahrain": "BH",
    "Asia/Muscat": "OM",
    "Asia/Beirut": "LB",
    "Asia/Amman": "JO",
    "Asia/Baghdad": "IQ",
    "America/New_York": "US",
    "America/Chicago": "US",
    "America/Denver": "US",
    "America/Los_Angeles": "US",
    "Europe/London": "GB",
    "Asia/Kolkata": "IN",
    "Asia/Karachi": "PK",
    "America/Toronto": "CA",
    "America/Vancouver": "CA",
    "Europe/Paris": "FR",
    "Europe/Berlin": "DE",
    "Europe/Rome": "IT",
    "Europe/Madrid": "ES",
    "Europe/Amsterdam": "NL",
    "Europe/Brussels": "BE",
    "Europe/Vienna": "AT",
    "Europe/Stockholm": "SE",
    "Europe/Oslo": "NO",
    "Europe/Copenhagen": "DK",
    "Europe/Helsinki": "FI",
    "Europe/Warsaw": "PL",
    "Europe/Prague": "CZ",
    "Europe/Athens": "GR",
    "Europe/Lisbon": "PT",
    "Europe/Dublin": "IE",
    "Europe/Zurich": "CH",
    "Asia/Shanghai": "CN",
    "Asia/Tokyo": "JP",
    "Asia/Seoul": "KR",
    "Asia/Singapore": "SG",
    "Asia/Hong_Kong": "HK",
    "Australia/Sydney": "AU",
    "Australia/Melbourne": "AU",
    "Pacific/Auckland": "NZ",
    "Asia/Bangkok": "TH",
    "Asia/Jakarta": "ID",
    "Asia/Manila": "PH",
    "America/Mexico_City": "MX",
    "America/Sao_Paulo": "BR",
    "America/Buenos_Aires": "AR",
    "Africa/Johannesburg": "ZA",
    "Africa/Lagos": "NG",
    "Africa/Nairobi": "KE",
    "Asia/Tel_Aviv": "IL",
    "Europe/Moscow": "RU",
    "Europe/Istanbul": "TR",
    "Asia/Tehran": "IR"
  }
}
